STARLINK-2646           
1 48642U 21044E   26047.84537189  .00000415  00000+0  26138-4 0  9992
2 48642  53.1616 210.7637 0001384  67.9096 292.2052 15.30193261260637
STARLINK-2704           
1 48643U 21044F   26047.95071564 -.00001376  00000+0 -34332-4 0  9999
2 48643  53.1627 210.1850 0001526  90.4430 269.6746 15.30186674260652
STARLINK-2695           
1 48644U 21044G   26047.83590493  .00000539  00000+0  30322-4 0  9997
2 48644  53.1603 210.9150 0001375  83.9237 276.1920 15.30195562260633
STARLINK-2732           
1 48646U 21044J   26047.74738892  .00002628  00000+0  10083-3 0  9998
2 48646  53.1584 211.1679 0001092  88.9337 271.1788 15.30196352260628
STARLINK-2521           
1 48648U 21044L   26047.86853302  .00004533  00000+0  16509-3 0  9993
2 48648  53.1591 210.5649 0001221  81.5332 278.5807 15.30198639260641
STARLINK-2673           
1 48649U 21044M   26047.86536844  .00002201  00000+0  86411-4 0  9993
2 48649  53.1599 210.5653 0001359  93.2898 266.8259 15.30196603260633
STARLINK-2672           
1 48650U 21044N   26047.93702070  .00002918  00000+0  11062-3 0  9993
2 48650  53.1583 210.3334 0001237  85.6688 274.4454 15.30191502260645
STARLINK-2731           
1 48651U 21044P   26047.73160861  .00004362  00000+0  15939-3 0  9990
2 48651  53.1603 211.2272 0001395  83.5358 276.5801 15.30184059260611
STARLINK-2727           
1 48652U 21044Q   26048.10188061  .00016281  00000+0  60081-3 0  9996
2 48652  53.0523 208.2854 0000902 134.9861 225.1211 15.27926457260681
STARLINK-2720           
1 48653U 21044R   26047.85273161  .00000834  00000+0  40287-4 0  9998
2 48653  53.1600 210.6410 0001200  84.5620 275.5517 15.30189602260639
STARLINK-2657           
1 48655U 21044T   26047.92122043  .00002184  00000+0  85869-4 0  9995
2 48655  53.1598 210.4295 0001231  71.2700 288.8435 15.30194063260646
STARLINK-2701           
1 48656U 21044U   26047.97283572 -.00000391  00000+0 -10836-5 0  9999
2 48656  53.1593 210.0878 0001453  66.5747 293.5407 15.30185426260655
STARLINK-2734           
1 48657U 21044V   26047.77372764 -.00000902  00000+0 -18351-4 0  9997
2 48657  53.1604 210.9966 0001182  84.3947 275.7188 15.30186257260623
STARLINK-2647           
1 48658U 21044W   26047.76739955  .00001577  00000+0  65378-4 0  9994
2 48658  53.1611 211.0244 0001410  66.9726 293.1423 15.30193776260628
STARLINK-2717           
1 48659U 21044X   26047.96018080  .00002686  00000+0  10280-3 0  9999
2 48659  53.1586 210.1299 0001095  83.0551 277.0574 15.30194659260657
STARLINK-2726           
1 48662U 21044AA  26047.95080541  .00001708  00000+0  13347-3 0  9994
2 48662  53.0552 204.7170 0001236  92.8406 267.2725 15.06408722260723
STARLINK-2667           
1 48663U 21044AB  26047.81805162  .00004388  00000+0  16023-3 0  9995
2 48663  53.1631 200.7788 0001481  79.3897 280.7271 15.30193026260776
