[{"OBJECT_NAME":"STARLINK-2646","OBJECT_ID":"2021-044E","EPOCH":"2026-02-16T20:17:20.131296","MEAN_MOTION":15.30193261,"ECCENTRICITY":0.0001384,"INCLINATION":53.1616,"RA_OF_ASC_NODE":210.7637,"ARG_OF_PERICENTER":67.9096,"MEAN_ANOMALY":292.2052,"EPHEMERIS_TYPE":0,"CLASSIFICATION_TYPE":"U","NORAD_CAT_ID":48642,"ELEMENT_SET_NO":999,"REV_AT_EPOCH":26063,"BSTAR":2.6138e-5,"MEAN_MOTION_DOT":4.15e-6,"MEAN_MOTION_DDOT":0},{"OBJECT_NAME":"STARLINK-2704","OBJECT_ID":"2021-044F","EPOCH":"2026-02-16T22:49:01.831296","MEAN_MOTION":15.30186674,"ECCENTRICITY":0.0001526,"INCLINATION":53.1627,"RA_OF_ASC_NODE":210.185,"ARG_OF_PERICENTER":90.443,"MEAN_ANOMALY":269.6746,"EPHEMERIS_TYPE":0,"CLASSIFICATION_TYPE":"U","NORAD_CAT_ID":48643,"ELEMENT_SET_NO":999,"REV_AT_EPOCH":26065,"BSTAR":-3.4332e-5,"MEAN_MOTION_DOT":-1.376e-5,"MEAN_MOTION_DDOT":0},{"OBJECT_NAME":"STARLINK-2695","OBJECT_ID":"2021-044G","EPOCH":"2026-02-16T20:03:42.185952","MEAN_MOTION":15.30195562,"ECCENTRICITY":0.0001375,"INCLINATION":53.1603,"RA_OF_ASC_NODE":210.915,"ARG_OF_PERICENTER":83.9237,"MEAN_ANOMALY":276.192,"EPHEMERIS_TYPE":0,"CLASSIFICATION_TYPE":"U","NORAD_CAT_ID":48644,"ELEMENT_SET_NO":999,"REV_AT_EPOCH":26063,"BSTAR":3.0322e-5,"MEAN_MOTION_DOT":5.39e-6,"MEAN_MOTION_DDOT":0},{"OBJECT_NAME":"STARLINK-2732","OBJECT_ID":"2021-044J","EPOCH":"2026-02-16T17:56:14.402688","MEAN_MOTION":15.30196352,"ECCENTRICITY":0.0001092,"INCLINATION":53.1584,"RA_OF_ASC_NODE":211.1679,"ARG_OF_PERICENTER":88.9337,"MEAN_ANOMALY":271.1788,"EPHEMERIS_TYPE":0,"CLASSIFICATION_TYPE":"U","NORAD_CAT_ID":48646,"ELEMENT_SET_NO":999,"REV_AT_EPOCH":26062,"BSTAR":0.00010083,"MEAN_MOTION_DOT":2.628e-5,"MEAN_MOTION_DDOT":0},{"OBJECT_NAME":"STARLINK-2521","OBJECT_ID":"2021-044L","EPOCH":"2026-02-16T20:50:41.252928","MEAN_MOTION":15.30198639,"ECCENTRICITY":0.0001221,"INCLINATION":53.1591,"RA_OF_ASC_NODE":210.5649,"ARG_OF_PERICENTER":81.5332,"MEAN_ANOMALY":278.5807,"EPHEMERIS_TYPE":0,"CLASSIFICATION_TYPE":"U","NORAD_CAT_ID":48648,"ELEMENT_SET_NO":999,"REV_AT_EPOCH":26064,"BSTAR":0.00016509,"MEAN_MOTION_DOT":4.533e-5,"MEAN_MOTION_DDOT":0},{"OBJECT_NAME":"STARLINK-2673","OBJECT_ID":"2021-044M","EPOCH":"2026-02-16T20:46:07.833216","MEAN_MOTION":15.30196603,"ECCENTRICITY":0.0001359,"INCLINATION":53.1599,"RA_OF_ASC_NODE":210.5653,"ARG_OF_PERICENTER":93.2898,"MEAN_ANOMALY":266.8259,"EPHEMERIS_TYPE":0,"CLASSIFICATION_TYPE":"U","NORAD_CAT_ID":48649,"ELEMENT_SET_NO":999,"REV_AT_EPOCH":26063,"BSTAR":8.6411e-5,"MEAN_MOTION_DOT":2.201e-5,"MEAN_MOTION_DDOT":0},{"OBJECT_NAME":"STARLINK-2672","OBJECT_ID":"2021-044N","EPOCH":"2026-02-16T22:29:18.588480","MEAN_MOTION":15.30191502,"ECCENTRICITY":0.0001237,"INCLINATION":53.1583,"RA_OF_ASC_NODE":210.3334,"ARG_OF_PERICENTER":85.6688,"MEAN_ANOMALY":274.4454,"EPHEMERIS_TYPE":0,"CLASSIFICATION_TYPE":"U","NORAD_CAT_ID":48650,"ELEMENT_SET_NO":999,"REV_AT_EPOCH":26064,"BSTAR":0.00011062,"MEAN_MOTION_DOT":2.918e-5,"MEAN_MOTION_DDOT":0},{"OBJECT_NAME":"STARLINK-2731","OBJECT_ID":"2021-044P","EPOCH":"2026-02-16T17:33:30.983904","MEAN_MOTION":15.30184059,"ECCENTRICITY":0.0001395,"INCLINATION":53.1603,"RA_OF_ASC_NODE":211.2272,"ARG_OF_PERICENTER":83.5358,"MEAN_ANOMALY":276.5801,"EPHEMERIS_TYPE":0,"CLASSIFICATION_TYPE":"U","NORAD_CAT_ID":48651,"ELEMENT_SET_NO":999,"REV_AT_EPOCH":26061,"BSTAR":0.00015939,"MEAN_MOTION_DOT":4.362e-5,"MEAN_MOTION_DDOT":0},{"OBJECT_NAME":"STARLINK-2727","OBJECT_ID":"2021-044Q","EPOCH":"2026-02-17T02:26:42.484704","MEAN_MOTION":15.27926457,"ECCENTRICITY":9.02e-5,"INCLINATION":53.0523,"RA_OF_ASC_NODE":208.2854,"ARG_OF_PERICENTER":134.9861,"MEAN_ANOMALY":225.1211,"EPHEMERIS_TYPE":0,"CLASSIFICATION_TYPE":"U","NORAD_CAT_ID":48652,"ELEMENT_SET_NO":999,"REV_AT_EPOCH":26068,"BSTAR":0.00060081,"MEAN_MOTION_DOT":0.00016281,"MEAN_MOTION_DDOT":0},{"OBJECT_NAME":"STARLINK-2720","OBJECT_ID":"2021-044R","EPOCH":"2026-02-16T20:27:56.011104","MEAN_MOTION":15.30189602,"ECCENTRICITY":0.00012,"INCLINATION":53.16,"RA_OF_ASC_NODE":210.641,"ARG_OF_PERICENTER":84.562,"MEAN_ANOMALY":275.5517,"EPHEMERIS_TYPE":0,"CLASSIFICATION_TYPE":"U","NORAD_CAT_ID":48653,"ELEMENT_SET_NO":999,"REV_AT_EPOCH":26063,"BSTAR":4.0287e-5,"MEAN_MOTION_DOT":8.34e-6,"MEAN_MOTION_DDOT":0},{"OBJECT_NAME":"STARLINK-2657","OBJECT_ID":"2021-044T","EPOCH":"2026-02-16T22:06:33.445152","MEAN_MOTION":15.30194063,"ECCENTRICITY":0.0001231,"INCLINATION":53.1598,"RA_OF_ASC_NODE":210.4295,"ARG_OF_PERICENTER":71.27,"MEAN_ANOMALY":288.8435,"EPHEMERIS_TYPE":0,"CLASSIFICATION_TYPE":"U","NORAD_CAT_ID":48655,"ELEMENT_SET_NO":999,"REV_AT_EPOCH":26064,"BSTAR":8.5869e-5,"MEAN_MOTION_DOT":2.184e-5,"MEAN_MOTION_DDOT":0},{"OBJECT_NAME":"STARLINK-2701","OBJECT_ID":"2021-044U","EPOCH":"2026-02-16T23:20:53.006208","MEAN_MOTION":15.30185426,"ECCENTRICITY":0.0001453,"INCLINATION":53.1593,"RA_OF_ASC_NODE":210.0878,"ARG_OF_PERICENTER":66.5747,"MEAN_ANOMALY":293.5407,"EPHEMERIS_TYPE":0,"CLASSIFICATION_TYPE":"U","NORAD_CAT_ID":48656,"ELEMENT_SET_NO":999,"REV_AT_EPOCH":26065,"BSTAR":-1.0836e-6,"MEAN_MOTION_DOT":-3.91e-6,"MEAN_MOTION_DDOT":0},{"OBJECT_NAME":"STARLINK-2734","OBJECT_ID":"2021-044V","EPOCH":"2026-02-16T18:34:10.068096","MEAN_MOTION":15.30186257,"ECCENTRICITY":0.0001182,"INCLINATION":53.1604,"RA_OF_ASC_NODE":210.9966,"ARG_OF_PERICENTER":84.3947,"MEAN_ANOMALY":275.7188,"EPHEMERIS_TYPE":0,"CLASSIFICATION_TYPE":"U","NORAD_CAT_ID":48657,"ELEMENT_SET_NO":999,"REV_AT_EPOCH":26062,"BSTAR":-1.8351e-5,"MEAN_MOTION_DOT":-9.02e-6,"MEAN_MOTION_DDOT":0},{"OBJECT_NAME":"STARLINK-2647","OBJECT_ID":"2021-044W","EPOCH":"2026-02-16T18:25:03.321120","MEAN_MOTION":15.30193776,"ECCENTRICITY":0.000141,"INCLINATION":53.1611,"RA_OF_ASC_NODE":211.0244,"ARG_OF_PERICENTER":66.9726,"MEAN_ANOMALY":293.1423,"EPHEMERIS_TYPE":0,"CLASSIFICATION_TYPE":"U","NORAD_CAT_ID":48658,"ELEMENT_SET_NO":999,"REV_AT_EPOCH":26062,"BSTAR":6.5378e-5,"MEAN_MOTION_DOT":1.577e-5,"MEAN_MOTION_DDOT":0},{"OBJECT_NAME":"STARLINK-2717","OBJECT_ID":"2021-044X","EPOCH":"2026-02-16T23:02:39.621120","MEAN_MOTION":15.30194659,"ECCENTRICITY":0.0001095,"INCLINATION":53.1586,"RA_OF_ASC_NODE":210.1299,"ARG_OF_PERICENTER":83.0551,"MEAN_ANOMALY":277.0574,"EPHEMERIS_TYPE":0,"CLASSIFICATION_TYPE":"U","NORAD_CAT_ID":48659,"ELEMENT_SET_NO":999,"REV_AT_EPOCH":26065,"BSTAR":0.0001028,"MEAN_MOTION_DOT":2.686e-5,"MEAN_MOTION_DDOT":0},{"OBJECT_NAME":"STARLINK-2726","OBJECT_ID":"2021-044AA","EPOCH":"2026-02-16T22:49:09.587424","MEAN_MOTION":15.06408722,"ECCENTRICITY":0.0001236,"INCLINATION":53.0552,"RA_OF_ASC_NODE":204.717,"ARG_OF_PERICENTER":92.8406,"MEAN_ANOMALY":267.2725,"EPHEMERIS_TYPE":0,"CLASSIFICATION_TYPE":"U","NORAD_CAT_ID":48662,"ELEMENT_SET_NO":999,"REV_AT_EPOCH":26072,"BSTAR":0.00013347,"MEAN_MOTION_DOT":1.708e-5,"MEAN_MOTION_DDOT":0},{"OBJECT_NAME":"STARLINK-2667","OBJECT_ID":"2021-044AB","EPOCH":"2026-02-16T19:37:59.659968","MEAN_MOTION":15.30193026,"ECCENTRICITY":0.0001481,"INCLINATION":53.1631,"RA_OF_ASC_NODE":200.7788,"ARG_OF_PERICENTER":79.3897,"MEAN_ANOMALY":280.7271,"EPHEMERIS_TYPE":0,"CLASSIFICATION_TYPE":"U","NORAD_CAT_ID":48663,"ELEMENT_SET_NO":999,"REV_AT_EPOCH":26077,"BSTAR":0.00016023,"MEAN_MOTION_DOT":4.388e-5,"MEAN_MOTION_DDOT":0}]
